"Title","Link","AddressLine1","AddressLine2","City","State","Zip","Region"
"Bloomington Area Blood Donation Center","http://www.redcrossblood.org/donation-centers//locations/bloomington-area-blood-donation-center","505 West 98th St","","Bloomington","MN","55420","northcentral"
"Chippewa Valley Blood Donation Center","http://www.redcrossblood.org/donation-centers//locations/chippewa-valley-blood-donation-center","3485 East Hamilton Avenue","","Eau Claire","WI","54701","northcentral"
"Minneapolis Area Blood Donation Center","http://www.redcrossblood.org/donation-centers//locations/minneapolis-area-blood-donation-center","1201 West River Parkway","","Minneapolis","MN","55454","northcentral"
"North Suburban Blood Donation Center","http://www.redcrossblood.org/donation-centers//locations/north-suburban-blood-donation-center","1160 West County Road E","","Arden Hills","MN","55112","northcentral"
"St. Cloud Area Blood Donation Center","http://www.redcrossblood.org/donation-centers//locations/st-cloud-area-blood-donation-center","1301 W Saint Germain St","","Saint Cloud","MN","56301","northcentral"
"St. Paul Area Blood Donation Center","http://www.redcrossblood.org/donation-centers//locations/st-paul-area-blood-donation-center","176 Robert Street South","","Saint Paul","MN","55107","northcentral"
"Boise Donor Center","http://www.redcrossblood.org/donation-centers//locations/boise-donor-center","5380 Franklin Road","","Boise","ID","83705","lewisclark"
"Bozeman Donor Center","http://www.redcrossblood.org/donation-centers//locations/bozeman-donor-center","300 North Willson Avenue, Suite 103A","","Bozeman","MT","59715","lewisclark"
"Great Falls Donor Center","http://www.redcrossblood.org/donation-centers//locations/great-falls-donor-center","1300 28th Street South","","Great Falls","MT","59405","lewisclark"
"Helena Donor Center","http://www.redcrossblood.org/donation-centers//locations/helena-donor-center","3150 N Montana Avenue, Suite B","","Helena","MT","59602","lewisclark"
"Idaho Falls Donor Center","http://www.redcrossblood.org/donation-centers//locations/idaho-falls-donor-center","1165 E 17th Street","","Idaho Falls","ID","83404","lewisclark"
"Kalispell Donor Center","http://www.redcrossblood.org/donation-centers//locations/kalispell-donor-center","126 N Meridian Road","","Kalispell","MT","59901","lewisclark"
"Layton Donor Center","http://www.redcrossblood.org/donation-centers//locations/layton-donor-center","852 W Hill Field Road #B","","Layton","UT","84041","lewisclark"
"Lewiston Donor Center","http://www.redcrossblood.org/donation-centers//locations/lewiston-blood-center","508 Thain Road","","Lewiston","ID","83501","lewisclark"
"Missoula Donor Center","http://www.redcrossblood.org/donation-centers//locations/missoula-donor-center","2401 N. Reserve Street","","Missoula","MT","59808","lewisclark"
"Orem Donor Center","http://www.redcrossblood.org/donation-centers//locations/orem-donor-center","384 East 1300 South","","Orem","UT","84057","lewisclark"
"Pocatello Donor Center","http://www.redcrossblood.org/donation-centers//locations/pocatello-donor-center","Pineridge Mall","4155 Yellowstone #128B","Chubbuck","ID","83202","lewisclark"
"Salt Lake Donor Center","http://www.redcrossblood.org/donation-centers//locations/salt-lake-donor-center","6616 South 900 East","","Salt Lake City","UT","84121","lewisclark"
"St. George Donor Center","http://www.redcrossblood.org/donation-centers//locations/st-george-donor-center","476 E Riverside Drive Suite B-6","","St George","UT","84790","lewisclark"
"Newark Donor Center","http://www.redcrossblood.org/donation-centers//locations/newark-donor-center","Cedar Village Shopping Plaza","39227 Cedar Blvd.","Newark","CA","94560","northernca"
"Oakland Donor Center","http://www.redcrossblood.org/donation-centers//locations/oakland-blood-center","6230 Claremont Avenue","","Oakland","CA","94618","northernca"
"Pleasant Hill Donor Center","http://www.redcrossblood.org/donation-centers//locations/pleasant-hill-donor-center","140 Gregory Lane, Suite 120","","Pleasant Hill","CA","94523","northernca"
"Pleasanton Donor Center","http://www.redcrossblood.org/donation-centers//locations/pleasanton-donor-center","5556-B Springdale Avenue","","Pleasanton","CA","94588","northernca"
"San Jose Donor Center","http://www.redcrossblood.org/donation-centers//locations/san-jose-blood-center","2731 N First Street","","San Jose","CA","95134","northernca"
"Fountain Valley Donor Center","http://www.redcrossblood.org/donation-centers//locations/fountain-valley-donor-center","17800 Newhope Street, Suite A","","Fountain Valley","CA","92708","socal"
"Fullerton Donor Center","http://www.redcrossblood.org/donation-centers//locations/fullerton-donor-center","1144 Rosecrans Avenue","","Fullerton","CA","92833","socal"
"Kearny Mesa","http://www.redcrossblood.org/donation-centers//locations/kearny-mesa","4229 Ponderosa Ave Ste C","","San Diego","CA","92123","socal"
"Laguna Hills Donor Center","http://www.redcrossblood.org/donation-centers//locations/laguna-hills-donor-center","22971 Mill Creek Drive","","Laguna Hills","CA","92653","socal"
"Long Beach Donor Center","http://www.redcrossblood.org/donation-centers//locations/long-beach-donor-center","3150 E 29th Street","","Long Beach","CA","90806","socal"
"Pasadena Donor Center","http://www.redcrossblood.org/donation-centers//locations/pasadena-donor-center","133 N Altadena Drive, Suite 103","","Pasadena","CA","91107","socal"
"Pomona Donor Center","http://www.redcrossblood.org/donation-centers//locations/pomona-donor-center","100 Red Cross Circle","","Pomona","CA","91768","socal"
"Santa Ana Donor Center","http://www.redcrossblood.org/donation-centers//locations/santa-ana-donor-center","600 Park Center Drive","","Santa Ana","CA","92705","socal"
"Torrance Donor Center","http://www.redcrossblood.org/donation-centers//locations/torrance-donor-center","2814 Sepulveda Blvd, Suite #E","","Torrance","CA","90505","socal"
"West Los Angeles Donor Center","http://www.redcrossblood.org/donation-centers//locations/west-los-angeles-donor-center","11355 Ohio Avenue","","West Los Angeles","CA","90025","socal"
"Woodland Hills Donor Center","http://www.redcrossblood.org/donation-centers//locations/woodland-hills-donor-center","6338 Variel Avenue","","Woodland Hills","CA","91367","socal"
"Central Oregon Donor Center","http://www.redcrossblood.org/donation-centers//locations/central-oregon-donor-center","815 SW Bond St","Suite 110","Bend","OR","97702","pnw"
"Clark County Donor Center","http://www.redcrossblood.org/donation-centers//locations/clark-county-donor-center","5109 NE 82nd Avenue","","Vancouver","WA","98662","pnw"
"Klamath Falls Donor Center","http://www.redcrossblood.org/donation-centers//locations/klamath-falls-donor-center","2312 S 6th Street, Suite B","","Klamath Falls","OR","97603","pnw"
"Medford Donor Center","http://www.redcrossblood.org/donation-centers//locations/medford-donor-center","1174 Progress Drive, Suite 102","Located in the same building as the DMV","Medford","OR","97504","pnw"
"Portland Donor Center","http://www.redcrossblood.org/donation-centers//locations/portland-donor-center","3131 N Vancouver Avenue","","Portland","OR","97227","pnw"
"Roseburg Donor Center","http://www.redcrossblood.org/donation-centers//locations/roseburg-donor-center","1176 NW Garden Valley Blvd","","Roseburg","OR","97471-1923","pnw"
"Salem Donor Center","http://www.redcrossblood.org/donation-centers//locations/salem-donor-center","475 Cottage Street NE, Suite 110","","Salem","OR","97301","pnw"
"Tri-Cities Donor Center","http://www.redcrossblood.org/donation-centers//locations/tri-cities-donor-center","447 Wellsian Way","","Richland","WA","99352","pnw"
"Yakima Donor Center","http://www.redcrossblood.org/donation-centers//locations/yakima-donor-center","302 S 2nd Street","","Yakima","WA","98901","pnw"
"East Omaha Blood Donation Center","http://www.redcrossblood.org/donation-centers//locations/east-omaha-blood-donation-center","3838 Dewey Avenue","","Omaha","NE","68105","midwest"
"Grand Island Blood Donation Center","http://www.redcrossblood.org/donation-centers//locations/grand-island-blood-donation-center","404 East 3rd Street","","Grand Island","NE","68801","midwest"
"Kearney Blood Donation Center","http://www.redcrossblood.org/donation-centers//locations/kearney-blood-donation-center","520 W 48th St","","Kearney","NE","68845","midwest"
"Loess Hills Blood Donation Center","http://www.redcrossblood.org/donation-centers//locations/loess-hills-blood-donation-center","705 North 16th Street","","Council Bluffs","IA","51503","midwest"
"North Platte Blood Donation Center","http://www.redcrossblood.org/donation-centers//locations/north-platte-blood-donation-center","1111 South Cottonwood Street","","North Platte","NE","69101","midwest"
"West Omaha Blood Donation Center","http://www.redcrossblood.org/donation-centers//locations/west-omaha-blood-donation-center","729  North 132 Street","","Omaha","NE","68154","midwest"
"Tulsa 11th Street Center","http://www.redcrossblood.org/donation-centers//locations/tulsa-11th-street-center","10151 E. 11th Street","","Tulsa","OK","74128","southwest"
"Dubuque Blood Donation Center","http://www.redcrossblood.org/donation-centers//locations/dubuque-blood-donation-center","2400 Asbury Rd","","Dubuque","IA","52001","badgerhawkeye"
"Green Bay Blood Donation Center","http://www.redcrossblood.org/donation-centers//locations/green-bay-blood-donation-center","2131 Deckner Avenue","","Green Bay","WI","54308","badgerhawkeye"
"La Crosse Blood Donor Center","http://www.redcrossblood.org/donation-centers//locations/la-crosse-blood-donor-center","1427 Hwy 16","","La Crosse","WI","54601","badgerhawkeye"
"Madison East Blood Donation Center","http://www.redcrossblood.org/donation-centers//locations/madison-east-blood-donation-center","2109 Zeier Road","","Madison","WI","53704","badgerhawkeye"
"Madison West Blood Donation Center","http://www.redcrossblood.org/donation-centers//locations/madison-west-blood-donation-center","4860 Sheboygan Ave","","Madison","WI","53705","badgerhawkeye"
"Stevens Point Blood Donation Center","http://www.redcrossblood.org/donation-centers//locations/stevens-point-blood-donation-center","3201 Main Street","","Stevens Point","WI","54481","badgerhawkeye"
"Waterloo Blood Donation Center","http://www.redcrossblood.org/donation-centers//locations/waterloo-blood-donation-center","2530 University Ave","","Waterloo","IA","50701","badgerhawkeye"
"Waukesha Blood Donation Center","http://www.redcrossblood.org/donation-centers//locations/waukesha-blood-donation-center","2220 Silvernail Rd","","Pewaukee","WI","53072","badgerhawkeye"
"Hays Blood Donor Center","http://www.redcrossblood.org/donation-centers//locations/hays-blood-donor-center","208 East 8th St.","","Hays","KS","67601","centralplains"
"Northwest Blood Donor Center","http://www.redcrossblood.org/donation-centers//locations/northwest-blood-donor-center","8414 West 13th Street, North","Suite 200 and 210","Wichita","KS","67212","centralplains"
"Ponca City Chapter Express","http://www.redcrossblood.org/donation-centers//locations/ponca-city-chapter-express","216 E. Grand Ave.","","Ponca City","OK","74601","centralplains"
"Spirit AeroSystems Blood Donor Center","http://www.redcrossblood.org/donation-centers//locations/spirit-aerosystems-blood-donor-center","3801 South Oliver","","Wichita","KS","67210","centralplains"
"W.H. Helen M. Graves Blood Platelet Center","http://www.redcrossblood.org/donation-centers//locations/wh-helen-m-graves-blood-platelet-center","120 West Prescott","","Salina","KS","67401","centralplains"
"Wichita Blood Donor Center","http://www.redcrossblood.org/donation-centers//locations/wichita-blood-donor-center","707 North Main Street","","Wichita","KS","67203","centralplains"
"Adams County Blood Donation Center","http://www.redcrossblood.org/donation-centers//locations/adams-county-blood-donation-center","3000 N 23rd Street","","Quincy","IL","62305","heartofamerica"
"Galesburg Chapter Blood Donation Center","http://www.redcrossblood.org/donation-centers//locations/galesburg-chapter-blood-donation-center","143 E. Main","","Galesburg","IL","61401","heartofamerica"
"Heartland Chapter Blood Donation Center","http://www.redcrossblood.org/donation-centers//locations/heartland-chapter-blood-donation-center","1 Westport Court","","Bloomington","IL","61704","heartofamerica"
"Kankakee Blood Donation Center","http://www.redcrossblood.org/donation-centers//locations/kankakee-blood-donation-center","20 Heritage Drive","","Bourbonnais","IL","60914","heartofamerica"
"Macon CD Blood Donation Center","http://www.redcrossblood.org/donation-centers//locations/macon-cd-blood-donation-center","2674 N Main St","","Decatur","IL","62526","heartofamerica"
"Peoria Blood Donation Center","http://www.redcrossblood.org/donation-centers//locations/peoria-blood-donation-center","405 W. John H Gwynn Jr Ave","","Peoria","IL","61605","heartofamerica"
"Rock Falls Chapter Blood Donation Center","http://www.redcrossblood.org/donation-centers//locations/rock-falls-chapter-blood-donation-center","112 W. 2nd Street","","Rock Falls","IL","61071","heartofamerica"
"Streator Chapter Blood Donation Center","http://www.redcrossblood.org/donation-centers//locations/streator-chapter-blood-donation-center","204 S. Bloomington","","Streator","IL","61364","heartofamerica"
"Flint Donor Center","http://www.redcrossblood.org/donation-centers//locations/flint-donor-center","1401 South Grand Traverse","","Flint","MI","48503","greatlakes"
"Lansing Donor Center","http://www.redcrossblood.org/donation-centers//locations/lansing-donor-center","1729 East Saginaw Street","","Lansing","MI","48912","greatlakes"
"Muskegon Donor Center","http://www.redcrossblood.org/donation-centers//locations/muskegon-donor-center","313 West Webster Ave","","Muskegon","MI","49440","greatlakes"
"Petoskey American Red Cross","http://www.redcrossblood.org/donation-centers//locations/petoskey-american-red-cross","2350 Mitchell Park Dr.","","Petoskey","MI","49770","greatlakes"
"Cape Girardeau Center","http://www.redcrossblood.org/donation-centers//locations/cape-girardeau-center-0","20 S. Mount Auburn Road","","Cape Girardeau","MO","63703","missouri-illinois"
"Columbia Center","http://www.redcrossblood.org/donation-centers//locations/columbia-center","1511 S. Providence Road","","Columbia","MO","65203","missouri-illinois"
"Effingham Center","http://www.redcrossblood.org/donation-centers//locations/effingham-center","603 Eden Avenue","","Effingham","IL","62401","missouri-illinois"
"Fairview Heights Center","http://www.redcrossblood.org/donation-centers//locations/fairview-heights-center","10886 Lincoln Trail","","Fairview Heights","IL","62208","missouri-illinois"
"Jefferson City Center","http://www.redcrossblood.org/donation-centers//locations/jefferson-city-center","3230 Emerald Lane","","Jefferson City","MO","65109","missouri-illinois"
"Krakow Center","http://www.redcrossblood.org/donation-centers//locations/krakow-center","3021 Highway A","Suite 102","Washington","MO","63090","missouri-illinois"
"Lindell Center","http://www.redcrossblood.org/donation-centers//locations/lindell-center","4050 Lindell Boulevard","","Saint Louis","MO","63108","missouri-illinois"
"North County Center","http://www.redcrossblood.org/donation-centers//locations/north-county-center","3533 Dunn Road","","Florissant","MO","63033","missouri-illinois"
"South County Center","http://www.redcrossblood.org/donation-centers//locations/south-county-center","9230 Watson Road","","Crestwood","MO","63126","missouri-illinois"
"St. Charles County Center","http://www.redcrossblood.org/donation-centers//locations/st-charles-county-center","252 Mid Rivers Center","","St. Peters","MO","63376","missouri-illinois"
"West County Center","http://www.redcrossblood.org/donation-centers//locations/west-county-center","13369 Olive Boulevard","","Chesterfield","MO","63017","missouri-illinois"
"Ann Arbor Donor Center","http://www.redcrossblood.org/donation-centers//locations/ann-arbor-donor-center","4624 Packard Road","","Ann Arbor","MI","48108","southeasternmichigan"
"Berkley Donor Center","http://www.redcrossblood.org/donation-centers//locations/berkley-donor-center","28105 Woodward Ave","","Berkley","MI","48072","southeasternmichigan"
"Bloomfield Donor Center","http://www.redcrossblood.org/donation-centers//locations/bloomfield-donor-center","4190 S. Telegraph Rd.*","","Bloomfield ","MI","48302","southeasternmichigan"
"Detroit Donor Center Downtown","http://www.redcrossblood.org/donation-centers//locations/detroit-donor-center-downtown","100 Mack Ave","","Detroit","MI","48201","southeasternmichigan"
"Farmington Hills Donor Center","http://www.redcrossblood.org/donation-centers//locations/farmington-hills-donor-center","31150 Haggerty Rd","","Farmington Hills","MI","48331","southeasternmichigan"
"Livonia Donor Center","http://www.redcrossblood.org/donation-centers//locations/livonia-donor-center","36650 Five Mile Road","","Livonia","MI","48154","southeasternmichigan"
"Port Huron Donor Center","http://www.redcrossblood.org/donation-centers//locations/port-huron-donor-center","615 Pine Street","","Port Huron","MI","48060","southeasternmichigan"
"Riverview Donor Center","http://www.redcrossblood.org/donation-centers//locations/riverview-donor-center","14031 Pennsylvania","","Riverview","MI","48193","southeasternmichigan"
"South Macomb Donor Center","http://www.redcrossblood.org/donation-centers//locations/south-macomb-donor-center","13260 E. 11 Mile Road","","Warren","MI","48089","southeasternmichigan"
"Jonesboro Center","http://www.redcrossblood.org/donation-centers//locations/jonesboro-center","1904 Grant Street, Suite A","","Jonesboro","AR","72401","greaterozarks"
"Little Rock Center","http://www.redcrossblood.org/donation-centers//locations/little-rock-center","401 South Monroe","","Little Rock","AR","72205","greaterozarks"
"Mountain Home Center","http://www.redcrossblood.org/donation-centers//locations/mountain-home-center","1041 Highland Circle, Ste 22","","Mountain Home","AR","72653","greaterozarks"
"North Little Rock Center","http://www.redcrossblood.org/donation-centers//locations/north-little-rock-center","4548 John F. Kennedy Blvd. Suite 6","","North Little Rock","AR","72116","greaterozarks"
"Pine Bluff Center","http://www.redcrossblood.org/donation-centers//locations/pine-bluff-center","1602 West 42nd Street","","Pine Bluff","AR","71603","greaterozarks"
"Russellville Center","http://www.redcrossblood.org/donation-centers//locations/russellville-center","1003 West Main","","Russellville","AR","72801","greaterozarks"
"Searcy Donor Center","http://www.redcrossblood.org/donation-centers//locations/searcy-donor-center","1120 S. Main St.","","Searcy","AR","72143","greaterozarks"
"Springfield Center","http://www.redcrossblood.org/donation-centers//locations/springfield-center","313 East Battlefield, Suite B","","Springfield","MO","65807","greaterozarks"
"Toledo Blood Donor Center","http://www.redcrossblood.org/donation-centers//locations/toledo-blood-donor-center","3510 Executive Pkwy","","Toledo","OH","43606","westernlakeerie"
"Bloomington Blood Donation Center","http://www.redcrossblood.org/donation-centers//locations/bloomington-blood-donation-center","1600 West Third Street","","Bloomington","IN","47404","rivervalley"
"Columbus Blood Donation Center","http://www.redcrossblood.org/donation-centers//locations/columbus-blood-donation-center","931 Repp Drive","","Columbus","IN","47201","rivervalley"
"Elizabethtown Blood Donation Center","http://www.redcrossblood.org/donation-centers//locations/elizabethtown-blood-donation-center","405 W. Dixie Hwy","","Elizabethtown","KY","42701","rivervalley"
"Evansville - Locust Creek Blood Donation Center","http://www.redcrossblood.org/donation-centers//locations/evansville-locust-creek-blood-donation-center","2546 Locust Creek Dr.","","Evansville","IN","47720","rivervalley"
"Evansville - Stockwell Blood Donation Center","http://www.redcrossblood.org/donation-centers//locations/evansville-stockwell-blood-donation-center","29 South Stockwell Road","","Evansville","IN","47714","rivervalley"
"Jefferson Blood Donation Center","http://www.redcrossblood.org/donation-centers//locations/jefferson-blood-donation-center","1805 E. 8th Street","","Jeffersonville","IN","47130","rivervalley"
"Louisville - Chestnut Blood Donation Center","http://www.redcrossblood.org/donation-centers//locations/louisville-chestnut-blood-donation-center","520 East Chestnut Street","","Louisville","KY","40202","rivervalley"
"Louisville - Hubbards Blood Donation Center","http://www.redcrossblood.org/donation-centers//locations/louisville-hubbards-blood-donation-center","291 N. Hubbards Lane","","Louisville","KY","40207","rivervalley"
"Caldwell Trace Donor Center","http://www.redcrossblood.org/donation-centers//locations/caldwell-trace-donor-center","700 Caldwell Trace","","Birmingham","AL","35242","alabama"
"Josephson Donor Center","http://www.redcrossblood.org/donation-centers//locations/josephson-donor-center","3446 Demetropolis Road","","Mobile","AL","36693","alabama"
"Madison Co. Chapter","http://www.redcrossblood.org/donation-centers//locations/madison-co-chapter","1101 Washington Street","","Huntsville","AL","35801","alabama"
"Montgomery Donor Center","http://www.redcrossblood.org/donation-centers//locations/montgomery-donor-center","5015 Wood's Crossing","","Montgomery","AL","36104","alabama"
"UAB Hospital Blood Donation Center","http://www.redcrossblood.org/donation-centers//locations/uab-hospital-blood-donation-center","1802 6th Avenue South - North Pavilion 2390","","Birmingham","AL","35233","alabama"
"Bowling Green Blood Donor Site","http://www.redcrossblood.org/donation-centers//BowlingGreen","1021 Wilkinson Trace","","Bowling Green","KY","42101","tennesseevalley"
"Clarksville-Montgomery County Chapter","http://www.redcrossblood.org/donation-centers//locations/clarksville-montgomery-county-chapter","1760 Madison Street","","Clarksville","TN","37043","tennesseevalley"
"Crossville","http://www.redcrossblood.org/donation-centers//locations/crossville","11 East First Street","","Crossville","TN","38555","tennesseevalley"
"Murfreesboro","http://www.redcrossblood.org/donation-centers//locations/murfreesboro","501 Memorial Blvd.","","Murfreesboro","TN","37129","tennesseevalley"
"Nashville Center","http://www.redcrossblood.org/donation-centers//NashvilleCenter","2201 Charlotte Avenue","","Nashville","TN","37203","tennesseevalley"
"Paducah","http://www.redcrossblood.org/donation-centers//locations/paducah","4635 Falconcrest Drive","","Paducah","KY","42001","tennesseevalley"
"American Red Cross Fort Wayne Donor Center","http://www.redcrossblood.org/donation-centers//locations/american-red-cross-fort-wayne-donor-center","1212 E. California Road","","Fort Wayne","IN","46825","indianaohio"
"American Red Cross Goshen Blood Donor Center - Indiana","http://www.redcrossblood.org/donation-centers//locations/american-red-cross-goshen-blood-donor-center-indiana","1123 S. Indiana Ave.","","Goshen","IN","46526","indianaohio"
"American Red Cross Lutheran Hospital Donor Center","http://www.redcrossblood.org/donation-centers//locations/american-red-cross-lutheran-hospital-donor-center","7900 W. Jefferson Blvd. Suite 107","","Fort Wayne","IN","46804","indianaohio"
"American Red Cross Merrillville Donor Center","http://www.redcrossblood.org/donation-centers//locations/american-red-cross-merrillville-donor-center","791 E. 83rd Ave.","","Merrillville","IN","46410","indianaohio"
"Avon Donor Center - Avon, OH","http://www.redcrossblood.org/donation-centers//locations/avon-donor-center","2100 Center Road","","Avon","OH","44011","northernohio"
"Parma Donor Center - Parma, OH","http://www.redcrossblood.org/donation-centers//locations/parma-donor-center","5585 Pearl Road","","Parma","OH","44129","northernohio"
"Summit Donor Center - Akron, OH","http://www.redcrossblood.org/donation-centers//locations/summit-donor-center","501 West Market Street","","Akron","OH","44303","northernohio"
"Warzel Downtown Donor Center - Cleveland, OH","http://www.redcrossblood.org/donation-centers//locations/warzel-downtown-donor-center-cleveland-oh","3636  Euclid Avenue","","Cleveland","OH","44115","northernohio"
"Carriage Place Donor Center","http://www.redcrossblood.org/donation-centers//locations/carriage-place-donor-center","4820 Sawmill Road","","Columbus","OH","43235","centralohio"
"Licking Donor Center","http://www.redcrossblood.org/donation-centers//locations/licking-donor-center","1272 West Main Street, Doctor's Park Bldg. 5","","Newark","OH","43055","centralohio"
"Nationwide Donor Center","http://www.redcrossblood.org/donation-centers//locations/nationwide-donor-center","One Nationwide Plaza","","Columbus","OH","43215","centralohio"
"Polaris Donor Center","http://www.redcrossblood.org/donation-centers//locations/polaris-donor-center","1327 Cameron Ave.","","Lewis Center","OH","43035","centralohio"
"Richland Donor Center","http://www.redcrossblood.org/donation-centers//locations/richland-donor-center","39 North Park Street","","Mansfield","OH","44902","centralohio"
"Stoneridge Donor Center","http://www.redcrossblood.org/donation-centers//locations/stoneridge-donor-center","337 Stoneridge Ln","","Gahanna","OH","43230","centralohio"
"Westbelt Donor Center","http://www.redcrossblood.org/donation-centers//locations/westbelt-donor-center","4327 Equity Drive","","Columbus","OH","43228","centralohio"
"Altoona Donor Center","http://www.redcrossblood.org/donation-centers//locations/altoona-donor-center","415 Orchard Avenue - Suite K","","Altoona","PA","16601","greateralleghenies"
"Ashland Donor Center","http://www.redcrossblood.org/donation-centers//locations/ashland-donor-center","King's Daughters Medical Center Outpatient Services Center","480 23rd Street and Carter Avenue","Ashland","KY","41101","greateralleghenies"
"Beaver Donor Center","http://www.redcrossblood.org/donation-centers//locations/beaver-donor-center","133 Friendship Circle","","Beaver","PA","15009","greateralleghenies"
"Clearfield Donor Cener","http://www.redcrossblood.org/donation-centers//locations/clearfield-donor-cener","440 Front Place","","Clearfield","PA","16830","greateralleghenies"
"Cumberland Donor Center","http://www.redcrossblood.org/donation-centers//locations/cumberland-donor-center","400 Cumberland Street","","Cumberland","MD","21502","greateralleghenies"
"Greensburg Donor Center","http://www.redcrossblood.org/donation-centers//locations/greensburg-donor-center","351 Harvey Avenue","","Greensburg","PA","15601","greateralleghenies"
"Hagerstown Donor Center","http://www.redcrossblood.org/donation-centers//locations/hagerstown-donor-center","1131 Conrad Court","Washington County Chapter, American Red Cross","Hagerstown","MD","21740","greateralleghenies"
"Hermitage Donor Center","http://www.redcrossblood.org/donation-centers//locations/hermitage-donor-center","3225 Moorefield Road","Trinity Lutheran Church","Hermitage","PA","16148","greateralleghenies"
"Huntington Donor Center","http://www.redcrossblood.org/donation-centers//locations/huntington-donor-center","1111 Veterans Memorial Blvd","","Huntington","WV","25701","greateralleghenies"
"Johnstown Donor Center","http://www.redcrossblood.org/donation-centers//locations/johnstown-donor-center","250 Jari Drive","John P. Murtha Donor Pavilion","Johnstown","PA","15904","greateralleghenies"
"Morgantown Donor Center","http://www.redcrossblood.org/donation-centers//locations/red-cross-donor-center-morgantown","1223-10 Pineview Drive Rear","","Morgantown","WV","26505","greateralleghenies"
"New Castle Donor Center","http://www.redcrossblood.org/donation-centers//locations/new-castle-donor-center","125 North Jefferson Street","","New Castle","PA","16101","greateralleghenies"
"Parkersburg Donor Center","http://www.redcrossblood.org/donation-centers//locations/parkersburg-donor-center","3210 Dudley Ave.","","Parkersburg","WV","26101","greateralleghenies"
"State College Donor Center","http://www.redcrossblood.org/donation-centers//locations/state-college-donor-center","135 S. Pugh St.","","State College","PA","16801","greateralleghenies"
"Wheeling Donor Center","http://www.redcrossblood.org/donation-centers//locations/wheeling-donor-center","Ohio Valley Medical Center, 2000 Eoff Street","","Wheeling ","WV","26003","greateralleghenies"
"Winchester Donor Center","http://www.redcrossblood.org/donation-centers//locations/winchester-donor-center","561 Fortress Drive","","Winchester","VA","22603","greateralleghenies"
"Wintersville Donor Center","http://www.redcrossblood.org/donation-centers//locations/wintersville-donor-center","Jefferson County Chapter, American Red Cross","81 Talbott Drive","Wintersville","OH","43953","greateralleghenies"
"Alice Peck Day Memorial Hospital Regularly Scheduled Mobile","http://www.redcrossblood.org/donation-centers//locations/alice-peck-day-memorial-hospital-regularly-scheduled-mobile","10 Alice Peck Day Drive","","Lebanon","NH","03766","nne"
"Bangor Blood Donation Center","http://www.redcrossblood.org/donation-centers//locations/bangor-blood-donation-center","900 B Hammond Street","","Bangor","ME","04401","nne"
"Burlington Blood Donation Center","http://www.redcrossblood.org/donation-centers//locations/burlington-blood-donation-center","32 North Prospect Street","","Burlington","VT","05401","nne"
"Central Maine Medical Center Blood Donation Center","http://www.redcrossblood.org/donation-centers//locations/red-cross-donor-center-central-maine-medical-center-300-main-street-lewiston-me-04240","300 Main Street","","Lewiston","ME","04240","nne"
"Manchester Blood Donation Center","http://www.redcrossblood.org/donation-centers//locations/manchester-blood-donation-center","425 Reservoir Ave","","Manchester","NH","03104","nne"
"Portland Blood Donation Center","http://www.redcrossblood.org/donation-centers//locations/portland-blood-donation-center","524 Forest Ave","Please use entrance on Ashmont Street","Portland","ME","04101","nne"
"Scranton Blood Donation Center","http://www.redcrossblood.org/donation-centers//locations/scranton-blood-donation-center","3 West Olive Street","","Scranton","PA","18508","nepa"
"Wilkes-Barre Blood Donation Center","http://www.redcrossblood.org/donation-centers//locations/wilkes-barre-blood-donation-center","29 New Commerce Blvd","","Ashley","PA","18706","nepa"
"Boston Donation Center","http://www.redcrossblood.org/donation-centers//locations/boston-donation-center","274 Tremont Street","","Boston","MA","02116","ma"
"Braintree Blood Donation Center","http://www.redcrossblood.org/donation-centers//locations/braintree-blood-donation-center","170 Forbes Road","","Braintree","MA","02184","ma"
"Dedham Blood Donation Center","http://www.redcrossblood.org/donation-centers//locations/dedham-blood-donation-center","180 Rustcraft Road","Suite 115","Dedham","MA","02026","ma"
"North Shore Blood Donation Center","http://www.redcrossblood.org/donation-centers//locations/north-shore-blood-donation-center","99 Rosewood Drive","","Danvers","MA","01923","ma"
"Raynham Blood Donation Center","http://www.redcrossblood.org/donation-centers//locations/raynham-blood-donation-center","275 New State Hwy (Rte 44)","","Raynham","MA","02767","ma"
"Springfield Blood Donation Center","http://www.redcrossblood.org/donation-centers//locations/springfield-blood-donation-center","3500 Main Street","","Springfield","MA","01107","ma"
"Worcester Blood Donation Center","http://www.redcrossblood.org/donation-centers//locations/worcester-blood-donation-center","381 Plantation Street","Five Biotech, Suite 110","Worcester","MA","01605","ma"
"Fairfield County Blood Donation Center","http://www.redcrossblood.org/donation-centers//locations/fairfield-county-donor-center-5230","596 Westport Avenue","","Norwalk","CT","06851","ct"
"Farmington Blood Donation Center Apheresis","http://www.redcrossblood.org/donation-centers//locations/farmington-blood-donation-center-apheresis","209 Farmington Avenue","","Farmington","CT","06032","ct"
"Bel Air Donor Center","http://www.redcrossblood.org/donation-centers//locations/bel-air-donor-center","2021 Emmorton Road Suite 122/124; Building B","","Bel Air","MD","21015","gcp"
"Columbia Donor Center","http://www.redcrossblood.org/donation-centers//locations/columbia-donor-center","10400 Little Patuxent Pkwy  Suite 400","","Columbia","MD","21044","gcp"
"Dr. Joan W. Gibble Donor Center at Mt. Hope","http://www.redcrossblood.org/donation-centers//locations/dr-joan-w-gibble-donor-center-mt-hope","4700 Mt. Hope Drive","","Baltimore","MD","21215","gcp"
"E Street Donor Center","http://www.redcrossblood.org/donation-centers//locations/e-street-donor-center","2025 E-Street, NW","","Washington","DC","20006","gcp"
"Fairfax Donor Center","http://www.redcrossblood.org/donation-centers//locations/fairfax-donor-center","2720 Prosperity Avenue, Suite 200","","Fairfax","VA","22031","gcp"
"Frederick Donor Center","http://www.redcrossblood.org/donation-centers//locations/frederick-donor-center","141 Thomas Johnson Drive, Suite 120","","Frederick","MD","21702","gcp"
"Glen Burnie Donor Center","http://www.redcrossblood.org/donation-centers//locations/glen-burnie-donor-center","7310 Ritchie Hwy., Suite 1007--Empire Towers","","Glen Burnie","MD","21061","gcp"
"Greater Hanover Donation Site","http://www.redcrossblood.org/donation-centers//locations/greater-hanover-donation-site","529 Carlisle Street","","Hanover","PA","17331","gcp"
"Rockville Donor Center","http://www.redcrossblood.org/donation-centers//locations/rockville-donor-center","Saratoga Building, 11820 Parklawn Drive, Suite 510","","Rockville","MD","20852","gcp"
"Timonium Donor Center","http://www.redcrossblood.org/donation-centers//locations/timonium-donor-center","2405 York Road, Suite 300","","Timonium","MD","21093","gcp"
"White Marsh Donor Center","http://www.redcrossblood.org/donation-centers//locations/white-marsh-donor-center","8114 Sandpiper Circle, Suite 118","","Baltimore","MD","21236","gcp"
"American Red Cross Blood Center Northern New Jersey","http://www.redcrossblood.org/donation-centers//locations/american-red-cross-blood-center-northern-new-jersey","209 Fairfield Road","","Fairfield","NJ","07004","pennjersey"
"Camden County Donor Center","http://www.redcrossblood.org/donation-centers//locations/camden-county-donor-center","5425 Marlton Pike","","Pennsauken","NJ","08109","pennjersey"
"Central New Jersey Donor Center","http://www.redcrossblood.org/donation-centers//locations/princeton-donor-center","707 Alexander Road","Suite 701","Princeton","NJ","08540","pennjersey"
"Northeast Philadelphia Donor Center","http://www.redcrossblood.org/donation-centers//locations/northeast-philadelphia-donor-center","1401 Rhawn Street","","Philadelphia","PA","19111","pennjersey"
"Philadelphia Donor Center","http://www.redcrossblood.org/donation-centers//locations/musser-donor-center","700 Spring Garden Street","","Philadelphia","PA","19123","pennjersey"
"Pleasantville Donor Center","http://www.redcrossblood.org/donation-centers//locations/pleasantville-donor-center","850 N. Franklin Avenue","","Pleasantville","NJ","08232","pennjersey"
"West Chester Donor Center","http://www.redcrossblood.org/donation-centers//locations/west-chester-donor-center","523 East Gay Street","","West Chester","PA","19380","pennjersey"
"Willow Grove Donor Center","http://www.redcrossblood.org/donation-centers//locations/willow-grove-donor-center","31 Easton Road","","Willow Grove","PA","19090","pennjersey"
"Albany Everett Road Blood Donation Center","http://www.redcrossblood.org/donation-centers//locations/albany-everett-road-blood-donation-center","33 Everett Road","","Albany","NY","12205","nyp"
"Buffalo Blood Donation Center","http://www.redcrossblood.org/donation-centers//locations/buffalo-blood-donation-center","786 Delaware Avenue","","Buffalo","NY","14209","nyp"
"Buffalo Transitown Blood Donation Center","http://www.redcrossblood.org/donation-centers//locations/buffalo-transitown-blood-donation-center","4267 Transit Road","","Williamsville","NY","14221","nyp"
"Cheektowaga Blood Donation Center","http://www.redcrossblood.org/donation-centers//locations/cheektowaga-blood-donation-center","576 Dick Road, Suite #1, Dick Urban Plaza","","Depew","NY","14043","nyp"
"Greece Blood Donation Center","http://www.redcrossblood.org/donation-centers//locations/greece-blood-donation-center","2590 West Ridge Road, Buckman's Plaza","","Greece","NY","14626","nyp"
"Hamburg Blood Donation Center","http://www.redcrossblood.org/donation-centers//locations/hamburg-blood-donation-center","5161 Camp Road","","Hamburg","NY","14075","nyp"
"Johnson City Blood Donation Center","http://www.redcrossblood.org/donation-centers//locations/johnson-city-blood-donation-center-0","365 Harry L Drive","","Johnson City","NY","13790","nyp"
"Liverpool Blood Donation Center","http://www.redcrossblood.org/donation-centers//locations/liverpool-blood-donation-center","7359 Oswego Road","","Liverpool","NY","13090","nyp"
"Perinton Blood Donation Center","http://www.redcrossblood.org/donation-centers//locations/perinton-blood-donation-center","Perinton Hills Shopping Center","6687 Pittsford-Palmyra Road","Fairport","NY","14450","nyp"
"Rochester Blood Donation Center","http://www.redcrossblood.org/donation-centers//locations/rochester-blood-donation-center","50 Prince Street","","Rochester","NY","14607","nyp"
"Tonawanda Mid City Plaza Blood Donation Center","http://www.redcrossblood.org/donation-centers//locations/tonawanda-mid-city-plaza-blood-donation-center","301 Meadow Drive, Mid City Plaza - next to Tops","","North Tonawanda","NY","14120","nyp"
"Utica Blood Donation Center ","http://www.redcrossblood.org/donation-centers//locations/utica-blood-donation-center","4685 Commercial Drive","","New Hartford","NY","13413","nyp"
"West Henrietta Blood Donation Center","http://www.redcrossblood.org/donation-centers//locations/west-henrietta-blood-donation-center","825 John Street","","West Henrietta","NY","14586","nyp"
"Asheville Blood Donation Center","http://www.redcrossblood.org/donation-centers//locations/asheville-blood-donation-center","100 Edgewood Road","","Asheville","NC","28804","carolinas"
"Cary Blood Donation Center","http://www.redcrossblood.org/donation-centers//locations/cary-blood-donation-center","3700 Regency Parkway Suite 150","","Cary","NC","27518","carolinas"
"Charlotte Blood Donation Center","http://www.redcrossblood.org/donation-centers//locations/charlotte-blood-donation-center","2425 Park Road","","Charlotte","NC","28203","carolinas"
"Durham Blood Donation Center","http://www.redcrossblood.org/donation-centers//locations/durham-blood-donation-center","4737 University Drive, #3","","Durham","NC","27707","carolinas"
"Huntersville Blood Donation Center","http://www.redcrossblood.org/donation-centers//locations/huntersville-blood-donation-center","9800 W. Kincey Ave","Ste. 110 ","Huntersville","NC","28078","carolinas"
"Johnson City Blood Donation Center","http://www.redcrossblood.org/donation-centers//locations/johnson-city-blood-donation-center","818 Sunset Drive, #100","","Johnson City","TN","37604","carolinas"
"North Raleigh Blood Donation Center ","http://www.redcrossblood.org/donation-centers//locations/north-raleigh-blood-donation-center","8301 Bandford Way","","Raleigh","NC","27613","carolinas"
"Nussbaum Blood Donation Center","http://www.redcrossblood.org/donation-centers//locations/nussbaum-blood-donation-center","1501 Yanceyville Street","","Greensboro","NC","27405","carolinas"
"Raleigh Blood Donation Center","http://www.redcrossblood.org/donation-centers//locations/raleigh-blood-donation-center","100 N. Peartree Lane","","Raleigh","NC","27610","carolinas"
"Wilmington Blood Donation Center","http://www.redcrossblood.org/donation-centers//locations/wilmington-blood-donation-center","1102 South 16th Street","","Wilmington","NC","28401","carolinas"
"Winston Salem Blood Donation Center","http://www.redcrossblood.org/donation-centers//locations/winston-salem-blood-donation-center","650 Coliseum Drive","","Winston-Salem","NC","27106","carolinas"
"Beckley Donor Center (West Virginia)","http://www.redcrossblood.org/donation-centers//locations/beckley-donor-center-west-virginia","200 Industrial Drive","","Beckley","WV","25801","midatlantic"
"Fredericksburg Donation Center","http://www.redcrossblood.org/donation-centers//locations/fredericksburg-donation-center","4836 Southpoint Parkway","(Near Cracker Barrel & Chick-fil-A)","Fredericksburg","VA","22407","midatlantic"
"Greenville Donation Center","http://www.redcrossblood.org/donation-centers//locations/greenville-donation-center","700 Cromwell Drive","","Greenville","NC","27858","midatlantic"
"Lynchburg Community Drawing Center (Virginia)","http://www.redcrossblood.org/donation-centers//locations/lynchburg-community-drawing-center-virginia","1900 Tate Springs Road","","Lynchburg","VA","24501","midatlantic"
"New River Valley Donor Center (Virginia)","http://www.redcrossblood.org/donation-centers//locations/new-river-valley-donor-center-virginia","250 South Main Street Suite 200","","Blacksburg","VA","24060","midatlantic"
"Norfolk Donation Center","http://www.redcrossblood.org/donation-centers//locations/norfolk-donation-center","250 West Brambleton Avenue","","Norfolk","VA","23510","midatlantic"
"Roanoke Donor Center (Virginia)","http://www.redcrossblood.org/donation-centers//locations/roanoke-donor-center-virginia","352 Church Avenue SW","","Roanoke","VA","24016","midatlantic"
"Virginia Beach Donation Center","http://www.redcrossblood.org/donation-centers//locations/virginia-beach-donation-center","Pembroke Mall - 4554 Virginia Beach Blvd.","(In Donor Center next to Target)","Virginia Beach","VA","23462","midatlantic"
"Columbia Donation Center","http://www.redcrossblood.org/donation-centers//locations/columbia-fixed-site-whole-blood","2751 Bull St","","Columbia","SC","29201","sc"
"Florence Donation Center","http://www.redcrossblood.org/donation-centers//locations/florence-fixed-site-whole-blood","1555- B West Palmetto St.","","Florence","SC","29501","sc"
"Mt Pleasant Donation Center","http://www.redcrossblood.org/donation-centers//locations/mt-pleasant-fixed-site-whole-blood","920 Houston Northcutt Blvd. Suite A","","Mt Pleasant","SC","29464","sc"
"Myrtle Beach Donation Center","http://www.redcrossblood.org/donation-centers//locations/myrtle-beach-donation-center","The Plaza at Carolina Forest ","3681 Renee Drive, Unit 4","Myrtle Beach","SC","29579","sc"
"Sumter Donation Center","http://www.redcrossblood.org/donation-centers//locations/sumter-fixed-site","1155 N Guignard Drive","","Sumter","SC","29150","sc"
"West Ashley Donation Center","http://www.redcrossblood.org/donation-centers//locations/west-ashley","2000 Sam Rittenberg Blvd.","","Charleston","SC","29407","sc"
"Beckley Donor Center (West Virginia)","http://www.redcrossblood.org/donation-centers//locations/beckley-donor-center-west-virginia","200 Industrial Drive","","Beckley","WV","25801","midatlantic"
"Fredericksburg Donation Center","http://www.redcrossblood.org/donation-centers//locations/fredericksburg-donation-center","4836 Southpoint Parkway","(Near Cracker Barrel & Chick-fil-A)","Fredericksburg","VA","22407","midatlantic"
"Greenville Donation Center","http://www.redcrossblood.org/donation-centers//locations/greenville-donation-center","700 Cromwell Drive","","Greenville","NC","27858","midatlantic"
"Lynchburg Community Drawing Center (Virginia)","http://www.redcrossblood.org/donation-centers//locations/lynchburg-community-drawing-center-virginia","1900 Tate Springs Road","","Lynchburg","VA","24501","midatlantic"
"New River Valley Donor Center (Virginia)","http://www.redcrossblood.org/donation-centers//locations/new-river-valley-donor-center-virginia","250 South Main Street Suite 200","","Blacksburg","VA","24060","midatlantic"
"Norfolk Donation Center","http://www.redcrossblood.org/donation-centers//locations/norfolk-donation-center","250 West Brambleton Avenue","","Norfolk","VA","23510","midatlantic"
"Roanoke Donor Center (Virginia)","http://www.redcrossblood.org/donation-centers//locations/roanoke-donor-center-virginia","352 Church Avenue SW","","Roanoke","VA","24016","midatlantic"
"Virginia Beach Donation Center","http://www.redcrossblood.org/donation-centers//locations/virginia-beach-donation-center","Pembroke Mall - 4554 Virginia Beach Blvd.","(In Donor Center next to Target)","Virginia Beach","VA","23462","midatlantic"
"Albany Donor Center","http://www.redcrossblood.org/donation-centers//locations/albany-donor-center","1515 Dawson Road","","Albany","GA","31707","southern"
"Alpharetta Donor Center","http://www.redcrossblood.org/donation-centers//locations/alpharetta-donor-center","3000 Old Alabama Road","","Alpharetta","GA","30022","southern"
"Athens Donor Center","http://www.redcrossblood.org/donation-centers//locations/athens-donor-center","3525-3527 Atlanta Highway","","Athens","GA","30606","southern"
"Cobb Donor Center","http://www.redcrossblood.org/donation-centers//locations/cobb-donor-center","2145 Roswell Road  Ste 250","","Marietta","GA","30062","southern"
"Columbus Donor Center","http://www.redcrossblood.org/donation-centers//locations/columbus-donor-center","7490 Veterans Parkway","","Columbus","GA","31909","southern"
"Duluth Donor Center","http://www.redcrossblood.org/donation-centers//locations/duluth-donor-center","3090 Premiere Parkway","","Duluth","GA","30097","southern"
"Gainesville Donor Center","http://www.redcrossblood.org/donation-centers//locations/gainesville-donor-center","311 Jesse Jewell Parkway, SW","","Gainesville","GA","30503","southern"
"Macon Donor Center","http://www.redcrossblood.org/donation-centers//locations/macon-donor-center","3755 Bloomfield Road","","Macon","GA","31206","southern"
"Midtown Donor Center","http://www.redcrossblood.org/donation-centers//locations/midtown-donor-center","1955 Monroe Drive, NE","","Atlanta","GA","30324","southern"
"Savannah Donor Center","http://www.redcrossblood.org/donation-centers//locations/savannah-donor-center","25 Tibet Avenue","","Savannah","GA","31406","southern"
"Valdosta Donor Center","http://www.redcrossblood.org/donation-centers//locations/valdosta-donor-center","2517 Bemiss Road","","Valdosta","GA","31602","southern"
"Edificio Cruz Roja Americana","http://www.redcrossblood.org/donation-centers//locations/centro-fijo-rio-piedras","Calle José Celso Barbosa ","Terrenos de Centro Médico","Rio Piedras","PR","00935","puertorico"
